GLOBALSTAR M045         
1 25676U 99019A   24124.47437233 -.00000111  00000+0 -15329-3 0  9997
2 25676  51.9996  33.0104 0001003  98.4701  72.5841 12.27036238143099
GLOBALSTAR M019         
1 25677U 99019B   24124.34989837 -.00000045  00000+0  46749-3 0  9991
2 25677  51.9844 134.8981 0001012 216.7049 156.4014 12.13854034135378
GLOBALSTAR M044         
1 25678U 99019C   24124.47447238 -.00000060  00000+0  33015-3 0  9999
2 25678  51.9997  34.6547 0006278 334.8647 196.5827 11.90231822122537
GLOBALSTAR M042         
1 25679U 99019D   24124.72879895 -.00000081  00000+0  10928-3 0  9997
2 25679  51.9984 126.8419 0002905 174.1986 356.9306 12.22060885135263
GLOBALSTAR M025         
1 25770U 99031A   24124.45680619 -.00000062  00000+0  16813-3 0  9995
2 25770  51.9852  28.4337 0001253 159.6117  11.1067 11.22550565435696
GLOBALSTAR M049         
1 25771U 99031B   24124.75634659  .00000013  00000+0  27058-2 0  9999
2 25771  51.9904  41.9263 0003266  47.0777 313.0293 11.12104540 71879
GLOBALSTAR M047         
1 25772U 99031C   24124.57719425 -.00000076  00000+0 -17240-3 0  9999
2 25772  51.9829  78.4334 0016357 280.6744  79.2220 11.31920326424720
GLOBALSTAR M052         
1 25773U 99031D   24124.48419626 -.00000019  00000+0  15846-2 0  9995
2 25773  51.9828 156.9835 0002913 215.5217 293.9763 11.15050774432801
